{"type": "FeatureCollection", "features": [ {"type": "Feature", "properties": {"norad_id": 30411, "name": "FENGYUN 1C DEB", "group": "fengyun-1c-debris", "lat": 58.322425155720815, "lon": -108.37954279127726, "alt_km": 778.6107506135813, "timestamp": "2025-12-21T14:40:48.192754+00:00", "meta": {"OBJECT_NAME": "FENGYUN 1C DEB", "OBJECT_ID": "1999-025AEA", "EPOCH": "2025-12-21T05:52:25.332960", "MEAN_MOTION": 14.07693205, "ECCENTRICITY": 0.01234356, "INCLINATION": 98.5818, "RA_OF_ASC_NODE": 265.4366, "ARG_OF_PERICENTER": 82.6484, "MEAN_ANOMALY": 278.8695, "EPHEMERIS_TYPE": 0, "CLASSIFICATION_TYPE": "U", "NORAD_CAT_ID": 30411, "ELEMENT_SET_NO": 999, "REV_AT_EPOCH": 96103, "BSTAR": 0.00140689, "MEAN_MOTION_DOT": 2.511e-05, "MEAN_MOTION_DDOT": 0}, "tle": {"line1": "1 30411U 99025AEA 25355.24473765  .00002511  00000+0  14069-2 0  9992", "line2": "2 30411  98.5818 265.4366 0123435  82.6484 278.8695 14.07693205961033"}}, "geometry": {"type": "Point", "coordinates": [-108.37954279127726, 58.322425155720815]}}, {"type": "Feature", "properties": {"norad_id": 30413, "name": "FENGYUN 1C DEB", "group": "fengyun-1c-debris", "lat": 8.838629932512644, "lon": 53.84304533745527, "alt_km": 755.0178632210855, "timestamp": "2025-12-21T14:40:48.192764+00:00", "meta": {"OBJECT_NAME": "FENGYUN 1C DEB", "OBJECT_ID": "1999-025AEC", "EPOCH": "2025-12-21T04:25:24.818592", "MEAN_MOTION": 14.32617057, "ECCENTRICITY": 0.00445256, "INCLINATION": 102.0626, "RA_OF_ASC_NODE": 231.345, "ARG_OF_PERICENTER": 194.137, "MEAN_ANOMALY": 293.9643, "EPHEMERIS_TYPE": 0, "CLASSIFICATION_TYPE": "U", "NORAD_CAT_ID": 30413, "ELEMENT_SET_NO": 999, "REV_AT_EPOCH": 97260, "BSTAR": 0.0013713334, "MEAN_MOTION_DOT": 3.694e-05, "MEAN_MOTION_DDOT": 0}, "tle": {"line1": "1 30413U 99025AEC 25355.18431503  .00003694  00000+0  13713-2 0  9999", "line2": "2 30413 102.0626 231.3450 0044525 194.1370 293.9643 14.32617057972609"}}, "geometry": {"type": "Point", "coordinates": [53.84304533745527, 8.838629932512644]}}, {"type": "Feature", "properties": {"norad_id": 30414, "name": "FENGYUN 1C DEB", "group": "fengyun-1c-debris", "lat": -50.41407484564515, "lon": 164.45759997065406, "alt_km": 818.5446781816254, "timestamp": "2025-12-21T14:40:48.192774+00:00", "meta": {"OBJECT_NAME": "FENGYUN 1C DEB", "OBJECT_ID": "1999-025AED", "EPOCH": "2025-12-20T22:10:42.867264", "MEAN_MOTION": 14.34257854, "ECCENTRICITY": 0.0058073, "INCLINATION": 99.08, "RA_OF_ASC_NODE": 152.5842, "ARG_OF_PERICENTER": 165.2963, "MEAN_ANOMALY": 194.9926, "EPHEMERIS_TYPE": 0, "CLASSIFICATION_TYPE": "U", "NORAD_CAT_ID": 30414, "ELEMENT_SET_NO": 999, "REV_AT_EPOCH": 97204, "BSTAR": 0.0015957, "MEAN_MOTION_DOT": 4.518e-05, "MEAN_MOTION_DDOT": 0}, "tle": {"line1": "1 30414U 99025AED 25354.92410726  .00004518  00000+0  15957-2 0  9993", "line2": "2 30414  99.0800 152.5842 0058073 165.2963 194.9926 14.34257854972047"}}, "geometry": {"type": "Point", "coordinates": [164.45759997065406, -50.41407484564515]}}, {"type": "Feature", "properties": {"norad_id": 30415, "name": "FENGYUN 1C DEB", "group": "fengyun-1c-debris", "lat": 69.22114067903821, "lon": -97.50361978243554, "alt_km": 1126.230579014059, "timestamp": "2025-12-21T14:40:48.192784+00:00", "meta": {"OBJECT_NAME": "FENGYUN 1C DEB", "OBJECT_ID": "1999-025AEE", "EPOCH": "2025-12-19T10:11:45.140064", "MEAN_MOTION": 13.68954565, "ECCENTRICITY": 0.023966, "INCLINATION": 99.6456, "RA_OF_ASC_NODE": 53.6804, "ARG_OF_PERICENTER": 252.151, "MEAN_ANOMALY": 246.4978, "EPHEMERIS_TYPE": 0, "CLASSIFICATION_TYPE": "U", "NORAD_CAT_ID": 30415, "ELEMENT_SET_NO": 999, "REV_AT_EPOCH": 93969, "BSTAR": 0.0011757, "MEAN_MOTION_DOT": 1.194e-05, "MEAN_MOTION_DDOT": 0}, "tle": {"line1": "1 30415U 99025AEE 25353.42482801  .00001194  00000+0  11757-2 0  9992", "line2": "2 30415  99.6456  53.6804 0239660 252.1510 246.4978 13.68954565939690"}}, "geometry": {"type": "Point", "coordinates": [-97.50361978243554, 69.22114067903821]}}, {"type": "Feature", "properties": {"norad_id": 30416, "name": "FENGYUN 1C DEB", "group": "fengyun-1c-debris", "lat": -40.690710507115384, "lon": -167.93039264423197, "alt_km": 868.3414667330089, "timestamp": "2025-12-21T14:40:48.192794+00:00", "meta": {"OBJECT_NAME": "FENGYUN 1C DEB", "OBJECT_ID": "1999-025AEF", "EPOCH": "2025-12-21T01:38:52.513440", "MEAN_MOTION": 14.02641888, "ECCENTRICITY": 0.00557381, "INCLINATION": 98.8353, "RA_OF_ASC_NODE": 19.2286, "ARG_OF_PERICENTER": 166.7063, "MEAN_ANOMALY": 193.5587, "EPHEMERIS_TYPE": 0, "CLASSIFICATION_TYPE": "U", "NORAD_CAT_ID": 30416, "ELEMENT_SET_NO": 999, "REV_AT_EPOCH": 96741, "BSTAR": 0.00041107425, "MEAN_MOTION_DOT": 6e-06, "MEAN_MOTION_DDOT": 0}, "tle": {"line1": "1 30416U 99025AEF 25355.06866335  .00000600  00000+0  41107-3 0  9997", "line2": "2 30416  98.8353  19.2286 0055738 166.7063 193.5587 14.02641888967414"}}, "geometry": {"type": "Point", "coordinates": [-167.93039264423197, -40.690710507115384]}}, {"type": "Feature", "properties": {"norad_id": 30417, "name": "FENGYUN 1C DEB", "group": "fengyun-1c-debris", "lat": 75.40819551643247, "lon": -158.64224655472844, "alt_km": 789.8919636041683, "timestamp": "2025-12-21T14:40:48.192804+00:00", "meta": {"OBJECT_NAME": "FENGYUN 1C DEB", "OBJECT_ID": "1999-025AEG", "EPOCH": "2025-12-20T21:31:50.159712", "MEAN_MOTION": 14.14670943, "ECCENTRICITY": 0.0064624, "INCLINATION": 98.6934, "RA_OF_ASC_NODE": 344.6664, "ARG_OF_PERICENTER": 96.985, "MEAN_ANOMALY": 327.5827, "EPHEMERIS_TYPE": 0, "CLASSIFICATION_TYPE": "U", "NORAD_CAT_ID": 30417, "ELEMENT_SET_NO": 999, "REV_AT_EPOCH": 97504, "BSTAR": 0.00020272, "MEAN_MOTION_DOT": 3.56e-06, "MEAN_MOTION_DDOT": 0}, "tle": {"line1": "1 30417U 99025AEG 25354.89710833  .00000356  00000+0  20272-3 0  9997", "line2": "2 30417  98.6934 344.6664 0064624  96.9850 327.5827 14.14670943975046"}}, "geometry": {"type": "Point", "coordinates": [-158.64224655472844, 75.40819551643247]}}, {"type": "Feature", "properties": {"norad_id": 30418, "name": "FENGYUN 1C DEB", "group": "fengyun-1c-debris", "lat": -58.80216949285632, "lon": 171.2450812707351, "alt_km": 688.0457169686679, "timestamp": "2025-12-21T14:40:48.192814+00:00", "meta": {"OBJECT_NAME": "FENGYUN 1C DEB", "OBJECT_ID": "1999-025AEH", "EPOCH": "2025-12-20T23:20:04.246368", "MEAN_MOTION": 14.8431237, "ECCENTRICITY": 0.01111086, "INCLINATION": 98.8406, "RA_OF_ASC_NODE": 155.644, "ARG_OF_PERICENTER": 89.534, "MEAN_ANOMALY": 36.6539, "EPHEMERIS_TYPE": 0, "CLASSIFICATION_TYPE": "U", "NORAD_CAT_ID": 30418, "ELEMENT_SET_NO": 999, "REV_AT_EPOCH": 714, "BSTAR": 0.00048179952, "MEAN_MOTION_DOT": 4.441e-05, "MEAN_MOTION_DDOT": 0}, "tle": {"line1": "1 30418U 99025AEH 25354.97227137  .00004441  00000+0  48180-3 0  9994", "line2": "2 30418  98.8406 155.6440 0111108  89.5340  36.6539 14.84312370  7146"}}, "geometry": {"type": "Point", "coordinates": [171.2450812707351, -58.80216949285632]}}, {"type": "Feature", "properties": {"norad_id": 30419, "name": "FENGYUN 1C DEB", "group": "fengyun-1c-debris", "lat": 80.17379273607514, "lon": -167.18116860076333, "alt_km": 826.2607465223837, "timestamp": "2025-12-21T14:40:48.192824+00:00", "meta": {"OBJECT_NAME": "FENGYUN 1C DEB", "OBJECT_ID": "1999-025AEJ", "EPOCH": "2025-12-21T02:27:46.052640", "MEAN_MOTION": 14.18064319, "ECCENTRICITY": 0.00528327, "INCLINATION": 99.2418, "RA_OF_ASC_NODE": 302.23, "ARG_OF_PERICENTER": 1.7632, "MEAN_ANOMALY": 13.6704, "EPHEMERIS_TYPE": 0, "CLASSIFICATION_TYPE": "U", "NORAD_CAT_ID": 30419, "ELEMENT_SET_NO": 999, "REV_AT_EPOCH": 97467, "BSTAR": 0.00060350361, "MEAN_MOTION_DOT": 1.207e-05, "MEAN_MOTION_DDOT": 0}, "tle": {"line1": "1 30419U 99025AEJ 25355.10261635  .00001207  00000+0  60350-3 0  9992", "line2": "2 30419  99.2418 302.2300 0052832   1.7632  13.6704 14.18064319974672"}}, "geometry": {"type": "Point", "coordinates": [-167.18116860076333, 80.17379273607514]}}, {"type": "Feature", "properties": {"norad_id": 30432, "name": "FENGYUN 1C DEB", "group": "fengyun-1c-debris", "lat": 80.9154314839917, "lon": 178.16458039171616, "alt_km": 790.2756758400319, "timestamp": "2025-12-21T14:40:48.192834+00:00", "meta": {"OBJECT_NAME": "FENGYUN 1C DEB", "OBJECT_ID": "1999-025AET", "EPOCH": "2025-12-21T05:56:22.425792", "MEAN_MOTION": 14.40714989, "ECCENTRICITY": 0.00825078, "INCLINATION": 98.8359, "RA_OF_ASC_NODE": 254.3979, "ARG_OF_PERICENTER": 313.701, "MEAN_ANOMALY": 45.7362, "EPHEMERIS_TYPE": 0, "CLASSIFICATION_TYPE": "U", "NORAD_CAT_ID": 30432, "ELEMENT_SET_NO": 999, "REV_AT_EPOCH": 98857, "BSTAR": 0.00053037909, "MEAN_MOTION_DOT": 1.715e-05, "MEAN_MOTION_DDOT": 0}, "tle": {"line1": "1 30432U 99025AET 25355.24748178  .00001715  00000+0  53038-3 0  9993", "line2": "2 30432  98.8359 254.3979 0082507 313.7010  45.7362 14.40714989988573"}}, "geometry": {"type": "Point", "coordinates": [178.16458039171616, 80.9154314839917]}}, {"type": "Feature", "properties": {"norad_id": 30434, "name": "FENGYUN 1C DEB", "group": "fengyun-1c-debris", "lat": 77.36667516121945, "lon": -62.84610828207701, "alt_km": 970.0459507760543, "timestamp": "2025-12-21T14:40:48.192844+00:00", "meta": {"OBJECT_NAME": "FENGYUN 1C DEB", "OBJECT_ID": "1999-025AEV", "EPOCH": "2025-12-21T05:44:14.065152", "MEAN_MOTION": 13.90657976, "ECCENTRICITY": 0.01209876, "INCLINATION": 98.9998, "RA_OF_ASC_NODE": 341.7894, "ARG_OF_PERICENTER": 207.9524, "MEAN_ANOMALY": 169.8509, "EPHEMERIS_TYPE": 0, "CLASSIFICATION_TYPE": "U", "NORAD_CAT_ID": 30434, "ELEMENT_SET_NO": 999, "REV_AT_EPOCH": 95825, "BSTAR": 0.00026100639, "MEAN_MOTION_DOT": 3.02e-06, "MEAN_MOTION_DDOT": 0}, "tle": {"line1": "1 30434U 99025AEV 25355.23905168  .00000302  00000+0  26101-3 0  9990", "line2": "2 30434  98.9998 341.7894 0120987 207.9524 169.8509 13.90657976958250"}}, "geometry": {"type": "Point", "coordinates": [-62.84610828207701, 77.36667516121945]}}]}